HIMAWARI-8              
1 40267U 14060A   23284.01507571 -.00000276  00000+0  00000+0 0  9999
2 40267   0.0183 130.2746 0000816  82.3616 312.8218  1.00272774 33031
